FENGYUN 3C              
1 39260U 13052A   23193.04417779  .00000086  00000+0  64230-4 0  9990
2 39260  98.4275 205.8443 0010130 227.1189 132.9136 14.16052492507043
CASSIOPE                
1 39265U 13055A   23192.44921657  .00009420  00000+0  22978-3 0  9999
2 39265  80.9591 210.8808 0566558 234.3768 120.3400 14.52401617508480
ZACUBE-1 (TSHEPISOSAT)  
1 39417U 13066B   23193.16157941  .00002663  00000+0  30940-3 0  9997
2 39417  97.6861 153.9576 0053911 203.6721 156.2013 14.85152993520900
CINEMA-3 (KHUSAT-2)     
1 39426U 13066L   23191.75555770  .00001733  00000+0  26445-3 0  9994
2 39426  97.8281 120.8855 0102304  71.5314 289.6980 14.71600751516614
TRITON-1                
1 39427U 13066M   23192.58974397  .00002369  00000+0  35846-3 0  9998
2 39427  97.8344 117.5336 0109494  99.3082 262.0526 14.71113189516131
DELFI-N3XT              
1 39428U 13066N   23192.77062649  .00003993  00000+0  57279-3 0  9996
2 39428  97.8321 116.7357 0111953 110.0213 251.3090 14.72798344515938
GOMX-1                  
1 39430U 13066Q   23193.16980360  .00001306  00000+0  23419-3 0  9997
2 39430  97.7775  82.8549 0143701 254.2547 104.2767 14.61944439513184
BRITE-PL1 (LEM)         
1 39431U 13066R   23192.44897875  .00000817  00000+0  17968-3 0  9994
2 39431  97.6795  16.0909 0201075 102.3255 260.0529 14.48023964508843
ICUBE-1                 
1 39432U 13066S   23192.44124440  .00004558  00000+0  40989-3 0  9991
2 39432  97.4840 182.2611 0029950  44.3271 316.0341 14.95784439523970
HUMSAT-D                
1 39433U 13066T   23192.44640669  .00006188  00000+0  50282-3 0  9996
2 39433  97.4500 190.3081 0026239   9.6086 350.5634 14.99668249524579
VELOX-PII               
1 39438U 13066Y   23192.29987954  .00001904  00000+0  24299-3 0  9995
2 39438  97.7423 144.8772 0064773 269.4424  89.9367 14.81175397519645
FIRST-MOVE              
1 39439U 13066Z   23192.33280680  .00004991  00000+0  50792-3 0  9999
2 39439  97.6808 157.2124 0055437 195.1377 164.8185 14.90041742520919
CUBEBUG-2 (LO-74)       
1 39440U 13066AA  23191.43376725  .00002762  00000+0  35894-3 0  9997
2 39440  97.7727 139.4295 0073816 312.6485  46.8520 14.79609433518799
NEE-02 KRYSAOR          
1 39441U 13066AB  23192.79573293  .00002148  00000+0  29354-3 0  9999
2 39441  97.7835 137.5334 0077021 325.3065  34.3135 14.77585750518641
FUNCUBE-1 (AO-73)       
1 39444U 13066AE  23193.16289173  .00003206  00000+0  35611-3 0  9994
2 39444  97.6723 156.5267 0052558 188.4854 171.5480 14.86888099519940
HINCUBE                 
1 39445U 13066AF  23192.66742704  .00002921  00000+0  32712-3 0  9995
2 39445  97.6737 155.8075 0052563 192.8612 167.1267 14.86617010519398
UWE-3                   
1 39446U 13066AG  23192.66633148  .00002312  00000+0  28643-3 0  9999
2 39446  97.7352 146.7705 0063503 258.7496 100.6576 14.82247558518644
AIST-1 (RS-41)          
1 39492U 13078C   23193.15491231  .00001274  00000+0  13012-3 0  9993
2 39492  82.4169 223.4083 0017535 251.8178 108.1131 14.89765887517768
SPROUT                  
1 39770U 14029E   23192.79690381  .00017598  00000+0  13032-2 0  9992
2 39770  97.9880 320.7871 0006501 216.8272 143.2506 15.03187860495858
UNISAT-6                
1 40012U 14033C   23192.31387509  .00001636  00000+0  23409-3 0  9997
2 40012  97.6741   5.1801 0054871 339.3397  20.5595 14.76912694487330
BUGSAT-1 (TITA)         
1 40014U 14033E   23192.77981890  .00002967  00000+0  24346-3 0  9991
2 40014  98.1325 212.8470 0031707 188.3182 171.7519 14.99684296494413
DUCHIFAT-1              
1 40021U 14033M   23192.79975065  .00006328  00000+0  53604-3 0  9992
2 40021  98.0603 157.5534 0010470 178.6156 181.5096 14.98319891492874
NANOSATC-BR1            
1 40024U 14033Q   23192.13038169  .00003924  00000+0  35312-3 0  9993
2 40024  98.0282 147.8607 0010150 195.3367 164.7548 14.96206201492512
QB50P1                  
1 40025U 14033R   23192.11069939  .00002979  00000+0  28382-3 0  9999
2 40025  97.9965 139.3016 0010322 208.1884 151.8777 14.94136718492229
DTUSAT-2                
1 40030U 14033W   23191.80274499  .00003036  00000+0  29546-3 0  9997
2 40030  97.9677 132.6468 0009814 204.6947 155.3803 14.93282735492035
QB50P2                  
1 40032U 14033Y   23192.38149179  .00004001  00000+0  38735-3 0  9992
2 40032  97.9674 133.2506 0009866 203.6334 156.4433 14.93291166492107
POLYITAN-1              
1 40042U 14033AJ  23192.16614905  .00003784  00000+0  35081-3 0  9991
2 40042  98.0088 141.3100 0012075 198.8902 161.1871 14.95036127492139
TIGRISAT                
1 40043U 14033AK  23192.30947271  .00001289  00000+0  18699-3 0  9997
2 40043  97.6664   6.1216 0056958 336.7090  23.1541 14.76605007487278
AISAT                   
1 40054U 14034B   23193.13898188  .00004907  00000+0  60159-3 0  9992
2 40054  98.3670  26.4985 0012066 140.9007 219.3079 14.83582483487161
CANX-4                  
1 40055U 14034C   23192.95835801  .00001208  00000+0  18083-3 0  9995
2 40055  98.3914   8.8818 0013523 193.8220 166.2621 14.76600648486208
CANX-5                  
1 40056U 14034D   23192.76181679  .00001163  00000+0  17434-3 0  9991
2 40056  98.3917   8.6655 0013509 194.6531 165.4288 14.76603637486174
VELOX-I                 
1 40057U 14034E   23193.11545642  .00003350  00000+0  42811-3 0  9993
2 40057  98.3715  27.2807 0010470 155.9977 204.1725 14.82101051487128
METEOR-M 2              
1 40069U 14037A   23192.98936963  .00000081  00000+0  56600-4 0  9993
2 40069  98.4231 197.8120 0004414 271.2560  88.8112 14.20791512467177
DX1                     
1 40071U 14037C   23193.15510529  .00001340  00000+0  17177-3 0  9996
2 40071  98.3578  85.3188 0008952 137.1869 223.0042 14.83063243487068
UKUBE-1                 
1 40074U 14037F   23192.99037003  .00003456  00000+0  37817-3 0  9994
2 40074  98.3431  98.7811 0005538 102.0605 258.1231 14.88517123487948
FIREBIRD 3              
1 40377U 15003B   23192.64219874  .00396911  59704-4  14692-2 0  9990
2 40377  99.0697 159.4167 0034265 121.4329 239.0294 15.87109030468515
FIREBIRD 4              
1 40378U 15003C   23192.71463809  .00375563  53353-4  14179-2 0  9992
2 40378  99.0724 159.8301 0034429 120.6584 239.8083 15.86703986468532
GRIFEX                  
1 40379U 15003D   23193.15581644  .00031025  00000+0  63774-3 0  9994
2 40379  99.0768 135.9721 0078685 183.1982 176.8768 15.42589904467230
CP10 (EXOCUBE)          
1 40380U 15003E   23191.36291383  .00015444  00000+0  41672-3 0  9995
2 40380  99.0822 123.1789 0093895 225.2233 134.1340 15.33492670466283
DEORBITSAIL             
1 40719U 15032E   23192.93641239  .00003877  00000+0  49721-3 0  9996
2 40719  97.7326  62.8926 0014827 170.8954 189.2531 14.81738715431480
XW-2C                   
1 40906U 15049H   23193.12737381  .00011349  00000+0  42939-3 0  9995
2 40906  97.4930 200.3544 0013510  78.7820 281.4937 15.27028883432202
XW-2D                   
1 40907U 15049J   23192.91707710  .00014643  00000+0  51947-3 0  9994
2 40907  97.4910 200.7450 0012448  74.3039 285.9573 15.29098552432267
LILACSAT-2              
1 40908U 15049K   23193.10990807  .00005435  00000+0  25470-3 0  9999
2 40908  97.5246 196.0990 0015812 102.5815 257.7189 15.20006947431583
XW-2E                   
1 40909U 15049L   23193.15108677  .00030985  00000+0  77726-3 0  9990
2 40909  97.4513 207.4883 0008956  49.3459 310.8564 15.39933010432984
XW-2F                   
1 40910U 15049M   23193.15940601  .00030006  00000+0  76939-3 0  9992
2 40910  97.4607 206.7408 0009854  50.3801 309.8312 15.39260220432723
XW-2B                   
1 40911U 15049N   23192.98224769  .00014522  00000+0  51890-3 0  9997
2 40911  97.4889 201.2321 0012448  75.4412 284.8208 15.28865194432151
KAITUO 1B               
1 40912U 15049P   23193.14179596  .00043233  00000+0  88523-3 0  9998
2 40912  97.4154 211.4499 0006720  10.6450 349.4940 15.45952130433467
LAPAN-A2                
1 40931U 15052B   23192.26096342  .00001125  00000+0  66119-4 0  9994
2 40931   5.9995 274.6703 0013605 275.7948  84.0628 14.77267889420915
LQSAT                   
1 40958U 15057A   23193.16115624  .00000701  00000+0  11373-3 0  9993
2 40958  97.7004 225.8724 0018840 139.9382 220.3221 14.73959838417372
ATHENOXAT 1             
1 41168U 15077C   23192.89450521  .00287363  00000+0  21464-2 0  9998
2 41168  14.9870  25.6584 0006889  31.2826 328.7912 15.70460045420194
GALASSIA                
1 41170U 15077E   23192.94876862  .00049433  00000+0  10922-2 0  9998
2 41170  14.9884  43.7767 0007662  36.1518 323.9324 15.41879799420044
VELOX-II                
1 41171U 15077F   23192.22894014  .00017356  00000+0  57870-3 0  9992
2 41171  14.9890 154.4302 0006107 177.5939 182.4414 15.28338351418940
CHUBUSAT-2              
1 41338U 16012B   23192.76249406  .00003482  00000+0  23841-3 0  9991
2 41338  31.0033  60.6694 0012050  61.9131 298.2722 15.04174915406088
CHUBUSAT-3              
1 41339U 16012C   23192.95882864  .00003371  00000+0  23165-3 0  9990
2 41339  31.0097  56.5755 0011967  71.4020 288.7915 15.04017710406100
HORYU-4                 
1 41340U 16012D   23192.21642805  .00005955  00000+0  36916-3 0  9998
2 41340  31.0051  28.7306 0011062 121.7875 238.3841 15.08227243406352
OUFTI-1                 
1 41458U 16025C   23192.53593305  .00032737  00000+0  82216-3 0  9999
2 41458  98.1811  38.9801 0095375   6.7923 353.4585 15.35284363396783
E-ST@R-II               
1 41459U 16025D   23193.11949228  .00028020  00000+0  77737-3 0  9996
2 41459  98.1846  36.9749 0103238  13.0756 347.3122 15.31604569396716
AAUSAT 4                
1 41460U 16025E   23193.01516153  .00148768  00000+0  14902-2 0  9990
2 41460  98.1550  50.7133 0045672 321.0062  38.7904 15.63728515397645
AIST-2D (RS-48)         
1 41465U 16026B   23193.13000251  .00025077  00000+0  32205-3 0  9990
2 41465  96.9946  64.0084 0008647 130.8936 229.3071 15.59057105403854
